CCSDS_OMM_VERS = 2.0
CREATION_DATE  = 
ORIGINATOR     = 

OBJECT_NAME    = FLOCK 4H-22
OBJECT_ID      = 2025-276BM
CENTER_NAME    = EARTH
REF_FRAME      = TEME
TIME_SYSTEM    = UTC
MEAN_ELEMENT_THEORY = SGP/SGP4

EPOCH          = 2025-12-27T04:18:53.176032
MEAN_MOTION    = 15.17548413
ECCENTRICITY   = .0001512
INCLINATION    = 97.4370
RA_OF_ASC_NODE = 72.6765
ARG_OF_PERICENTER = 263.5232
MEAN_ANOMALY   = 96.5829

EPHEMERIS_TYPE = 0
CLASSIFICATION_TYPE = U
NORAD_CAT_ID   = 66725
ELEMENT_SET_NO = 999
REV_AT_EPOCH   = 431
BSTAR          = .35602E-3
MEAN_MOTION_DOT = .7081E-4
MEAN_MOTION_DDOT = 0

CCSDS_OMM_VERS = 2.0
CREATION_DATE  = 
ORIGINATOR     = 

OBJECT_NAME    = FLOCK 4H-23
OBJECT_ID      = 2025-276BN
CENTER_NAME    = EARTH
REF_FRAME      = TEME
TIME_SYSTEM    = UTC
MEAN_ELEMENT_THEORY = SGP/SGP4

EPOCH          = 2025-12-27T02:50:10.917024
MEAN_MOTION    = 15.17274357
ECCENTRICITY   = .0003644
INCLINATION    = 97.4436
RA_OF_ASC_NODE = 72.6337
ARG_OF_PERICENTER = 223.7033
MEAN_ANOMALY   = 136.3913

EPHEMERIS_TYPE = 0
CLASSIFICATION_TYPE = U
NORAD_CAT_ID   = 66726
ELEMENT_SET_NO = 999
REV_AT_EPOCH   = 430
BSTAR          = .32204E-3
MEAN_MOTION_DOT = .6348E-4
MEAN_MOTION_DDOT = 0

CCSDS_OMM_VERS = 2.0
CREATION_DATE  = 
ORIGINATOR     = 

OBJECT_NAME    = FLOCK 4H-24
OBJECT_ID      = 2025-276BP
CENTER_NAME    = EARTH
REF_FRAME      = TEME
TIME_SYSTEM    = UTC
MEAN_ELEMENT_THEORY = SGP/SGP4

EPOCH          = 2025-12-27T04:22:18.307776
MEAN_MOTION    = 15.17381235
ECCENTRICITY   = .0002941
INCLINATION    = 97.4435
RA_OF_ASC_NODE = 72.7034
ARG_OF_PERICENTER = 240.8883
MEAN_ANOMALY   = 119.2056

EPHEMERIS_TYPE = 0
CLASSIFICATION_TYPE = U
NORAD_CAT_ID   = 66727
ELEMENT_SET_NO = 999
REV_AT_EPOCH   = 431
BSTAR          = .33119E-3
MEAN_MOTION_DOT = .6551E-4
MEAN_MOTION_DDOT = 0

CCSDS_OMM_VERS = 2.0
CREATION_DATE  = 
ORIGINATOR     = 

OBJECT_NAME    = FLOCK 4H-25
OBJECT_ID      = 2025-276BQ
CENTER_NAME    = EARTH
REF_FRAME      = TEME
TIME_SYSTEM    = UTC
MEAN_ELEMENT_THEORY = SGP/SGP4

EPOCH          = 2025-12-27T03:58:24.307104
MEAN_MOTION    = 15.18268755
ECCENTRICITY   = .0001756
INCLINATION    = 97.4391
RA_OF_ASC_NODE = 72.7065
ARG_OF_PERICENTER = 114.5398
MEAN_ANOMALY   = 245.6019

EPHEMERIS_TYPE = 0
CLASSIFICATION_TYPE = U
NORAD_CAT_ID   = 66728
ELEMENT_SET_NO = 999
REV_AT_EPOCH   = 359
BSTAR          = .36989E-3
MEAN_MOTION_DOT = .7514E-4
MEAN_MOTION_DDOT = 0

CCSDS_OMM_VERS = 2.0
CREATION_DATE  = 
ORIGINATOR     = 

OBJECT_NAME    = FLOCK 4H-26
OBJECT_ID      = 2025-276BR
CENTER_NAME    = EARTH
REF_FRAME      = TEME
TIME_SYSTEM    = UTC
MEAN_ELEMENT_THEORY = SGP/SGP4

EPOCH          = 2025-12-27T04:27:35.725824
MEAN_MOTION    = 15.17203880
ECCENTRICITY   = .0003721
INCLINATION    = 97.4386
RA_OF_ASC_NODE = 72.6783
ARG_OF_PERICENTER = 240.1679
MEAN_ANOMALY   = 119.9185

EPHEMERIS_TYPE = 0
CLASSIFICATION_TYPE = U
NORAD_CAT_ID   = 66729
ELEMENT_SET_NO = 999
REV_AT_EPOCH   = 431
BSTAR          = .38668E-3
MEAN_MOTION_DOT = .7622E-4
MEAN_MOTION_DDOT = 0

CCSDS_OMM_VERS = 2.0
CREATION_DATE  = 
ORIGINATOR     = 

OBJECT_NAME    = FLOCK 4H-27
OBJECT_ID      = 2025-276BS
CENTER_NAME    = EARTH
REF_FRAME      = TEME
TIME_SYSTEM    = UTC
MEAN_ELEMENT_THEORY = SGP/SGP4

EPOCH          = 2025-12-27T04:02:01.599648
MEAN_MOTION    = 15.18092370
ECCENTRICITY   = .0000715
INCLINATION    = 97.4364
RA_OF_ASC_NODE = 72.6938
ARG_OF_PERICENTER = 81.6314
MEAN_ANOMALY   = 278.5001

EPHEMERIS_TYPE = 0
CLASSIFICATION_TYPE = U
NORAD_CAT_ID   = 66730
ELEMENT_SET_NO = 999
REV_AT_EPOCH   = 431
BSTAR          = -.75379E-3
MEAN_MOTION_DOT = -.15388E-3
MEAN_MOTION_DDOT = 0

CCSDS_OMM_VERS = 2.0
CREATION_DATE  = 
ORIGINATOR     = 

OBJECT_NAME    = FLOCK 4H-28
OBJECT_ID      = 2025-276BT
CENTER_NAME    = EARTH
REF_FRAME      = TEME
TIME_SYSTEM    = UTC
MEAN_ELEMENT_THEORY = SGP/SGP4

EPOCH          = 2025-12-27T04:27:11.823264
MEAN_MOTION    = 15.17190586
ECCENTRICITY   = .0003323
INCLINATION    = 97.4375
RA_OF_ASC_NODE = 72.6743
ARG_OF_PERICENTER = 241.1208
MEAN_ANOMALY   = 118.9692

EPHEMERIS_TYPE = 0
CLASSIFICATION_TYPE = U
NORAD_CAT_ID   = 66731
ELEMENT_SET_NO = 999
REV_AT_EPOCH   = 431
BSTAR          = .37446E-3
MEAN_MOTION_DOT = .7376E-4
MEAN_MOTION_DDOT = 0

CCSDS_OMM_VERS = 2.0
CREATION_DATE  = 
ORIGINATOR     = 

OBJECT_NAME    = FLOCK 4H-29
OBJECT_ID      = 2025-276BU
CENTER_NAME    = EARTH
REF_FRAME      = TEME
TIME_SYSTEM    = UTC
MEAN_ELEMENT_THEORY = SGP/SGP4

EPOCH          = 2025-12-27T04:23:24.059904
MEAN_MOTION    = 15.17330085
ECCENTRICITY   = .0002083
INCLINATION    = 97.4367
RA_OF_ASC_NODE = 72.6725
ARG_OF_PERICENTER = 256.3573
MEAN_ANOMALY   = 103.7429

EPHEMERIS_TYPE = 0
CLASSIFICATION_TYPE = U
NORAD_CAT_ID   = 66732
ELEMENT_SET_NO = 999
REV_AT_EPOCH   = 431
BSTAR          = .32954E-3
MEAN_MOTION_DOT = .6508E-4
MEAN_MOTION_DDOT = 0

CCSDS_OMM_VERS = 2.0
CREATION_DATE  = 
ORIGINATOR     = 

OBJECT_NAME    = FLOCK 4H-30
OBJECT_ID      = 2025-276BV
CENTER_NAME    = EARTH
REF_FRAME      = TEME
TIME_SYSTEM    = UTC
MEAN_ELEMENT_THEORY = SGP/SGP4

EPOCH          = 2025-12-27T04:00:01.998720
MEAN_MOTION    = 15.17292314
ECCENTRICITY   = .0003202
INCLINATION    = 97.4428
RA_OF_ASC_NODE = 72.6811
ARG_OF_PERICENTER = 243.9566
MEAN_ANOMALY   = 20.9255

EPHEMERIS_TYPE = 0
CLASSIFICATION_TYPE = U
NORAD_CAT_ID   = 66733
ELEMENT_SET_NO = 999
REV_AT_EPOCH   = 373
BSTAR          = .24698E-2
MEAN_MOTION_DOT = .49444E-3
MEAN_MOTION_DDOT = 0

CCSDS_OMM_VERS = 2.0
CREATION_DATE  = 
ORIGINATOR     = 

OBJECT_NAME    = FLOCK 4H-31
OBJECT_ID      = 2025-276BW
CENTER_NAME    = EARTH
REF_FRAME      = TEME
TIME_SYSTEM    = UTC
MEAN_ELEMENT_THEORY = SGP/SGP4

EPOCH          = 2025-12-27T04:00:01.998720
MEAN_MOTION    = 15.17241746
ECCENTRICITY   = .0002451
INCLINATION    = 97.4363
RA_OF_ASC_NODE = 72.6548
ARG_OF_PERICENTER = 251.7388
MEAN_ANOMALY   = 13.1056

EPHEMERIS_TYPE = 0
CLASSIFICATION_TYPE = U
NORAD_CAT_ID   = 66734
ELEMENT_SET_NO = 999
REV_AT_EPOCH   = 373
BSTAR          = .24386E-2
MEAN_MOTION_DOT = .48741E-3
MEAN_MOTION_DDOT = 0

CCSDS_OMM_VERS = 2.0
CREATION_DATE  = 
ORIGINATOR     = 

OBJECT_NAME    = FLOCK 4H-32
OBJECT_ID      = 2025-276BX
CENTER_NAME    = EARTH
REF_FRAME      = TEME
TIME_SYSTEM    = UTC
MEAN_ELEMENT_THEORY = SGP/SGP4

EPOCH          = 2025-12-27T04:25:40.258272
MEAN_MOTION    = 15.17289125
ECCENTRICITY   = .0003596
INCLINATION    = 97.4420
RA_OF_ASC_NODE = 72.6933
ARG_OF_PERICENTER = 238.8557
MEAN_ANOMALY   = 121.2324

EPHEMERIS_TYPE = 0
CLASSIFICATION_TYPE = U
NORAD_CAT_ID   = 66735
ELEMENT_SET_NO = 999
REV_AT_EPOCH   = 431
BSTAR          = .57474E-3
MEAN_MOTION_DOT = .11395E-3
MEAN_MOTION_DDOT = 0

CCSDS_OMM_VERS = 2.0
CREATION_DATE  = 
ORIGINATOR     = 

OBJECT_NAME    = FLOCK 4H-33
OBJECT_ID      = 2025-276BY
CENTER_NAME    = EARTH
REF_FRAME      = TEME
TIME_SYSTEM    = UTC
MEAN_ELEMENT_THEORY = SGP/SGP4

EPOCH          = 2025-12-27T03:57:23.126400
MEAN_MOTION    = 15.18360407
ECCENTRICITY   = .0002929
INCLINATION    = 97.4419
RA_OF_ASC_NODE = 72.7189
ARG_OF_PERICENTER = 149.3763
MEAN_ANOMALY   = 210.7643

EPHEMERIS_TYPE = 0
CLASSIFICATION_TYPE = U
NORAD_CAT_ID   = 66736
ELEMENT_SET_NO = 999
REV_AT_EPOCH   = 431
BSTAR          = .63926E-3
MEAN_MOTION_DOT = .1308E-3
MEAN_MOTION_DDOT = 0

