FLOCK 4H-22             
1 66725U 25276BM  25361.17978213  .00007081  00000+0  35602-3 0  9997
2 66725  97.4370  72.6765 0001512 263.5232  96.5829 15.17548413  4319
FLOCK 4H-23             
1 66726U 25276BN  25361.11818191  .00006348  00000+0  32204-3 0  9990
2 66726  97.4436  72.6337 0003644 223.7033 136.3913 15.17274357  4302
FLOCK 4H-24             
1 66727U 25276BP  25361.18215634  .00006551  00000+0  33119-3 0  9993
2 66727  97.4435  72.7034 0002941 240.8883 119.2056 15.17381235  4312
FLOCK 4H-25             
1 66728U 25276BQ  25361.16555911  .00007514  00000+0  36989-3 0  9995
2 66728  97.4391  72.7065 0001756 114.5398 245.6019 15.18268755  3593
FLOCK 4H-26             
1 66729U 25276BR  25361.18583016  .00007622  00000+0  38668-3 0  9991
2 66729  97.4386  72.6783 0003721 240.1679 119.9185 15.17203880  4311
FLOCK 4H-27             
1 66730U 25276BS  25361.16807407 -.00015388  00000+0 -75379-3 0  9994
2 66730  97.4364  72.6938 0000715  81.6314 278.5001 15.18092370  4315
FLOCK 4H-28             
1 66731U 25276BT  25361.18555351  .00007376  00000+0  37446-3 0  9994
2 66731  97.4375  72.6743 0003323 241.1208 118.9692 15.17190586  4315
FLOCK 4H-29             
1 66732U 25276BU  25361.18291736  .00006508  00000+0  32954-3 0  9994
2 66732  97.4367  72.6725 0002083 256.3573 103.7429 15.17330085  4312
FLOCK 4H-30             
1 66733U 25276BV  25361.16668980  .00049444  00000+0  24698-2 0  9993
2 66733  97.4428  72.6811 0003202 243.9566  20.9255 15.17292314  3739
FLOCK 4H-31             
1 66734U 25276BW  25361.16668980  .00048741  00000+0  24386-2 0  9997
2 66734  97.4363  72.6548 0002451 251.7388  13.1056 15.17241746  3735
FLOCK 4H-32             
1 66735U 25276BX  25361.18449373  .00011395  00000+0  57474-3 0  9993
2 66735  97.4420  72.6933 0003596 238.8557 121.2324 15.17289125  4310
FLOCK 4H-33             
1 66736U 25276BY  25361.16485100  .00013080  00000+0  63926-3 0  9992
2 66736  97.4419  72.7189 0002929 149.3763 210.7643 15.18360407  4319
